ELEKTRO-L 3             
1 44903U 19095A   26165.84629191 -.00000091  00000+0  00000+0 0  9993
2 44903   0.2500  81.5549 0000964 352.7818 209.4234  1.00271493 23684
GONETS-M 14             
1 44905U 19096A   26165.87473478 -.00000062  00000+0 -51868-3 0  9995
2 44905  82.5238  86.0741 0013401 152.8625 207.3158 12.42869373293393
GONETS-M 15             
1 44906U 19096B   26165.82363862 -.00000013  00000+0 -16698-3 0  9994
2 44906  82.5257  86.5669 0014785 176.6094 183.5088 12.42871241293359
GONETS-M 16             
1 44907U 19096C   26165.84989416 -.00000054  00000+0 -45770-3 0  9994
2 44907  82.5204  85.5041 0009749 220.2539 139.7820 12.42891285293345
RS-44 & BREEZE-KM R/B   
1 44909U 19096E   26165.73793111  .00000015  00000+0  11257-4 0  9998
2 44909  82.5218 341.3328 0218072 149.8762 211.5093 12.79748816302037
JILIN-1 KUANFU 01       
1 45016U 20003A   26165.83482615  .00002806  00000+0  17312-3 0  9990
2 45016  97.5032 239.8358 0008501 317.0954  42.9612 15.10712008354972
XINGYUN-2 01            
1 45602U 20028A   26165.89162360  .00001625  00000+0  98894-4 0  9999
2 45602  97.4861 158.3372 0008145 200.4645 159.6261 15.11799021334491
XINGYUN-2 02            
1 45603U 20028B   26165.86983453  .00001415  00000+0  87251-4 0  9993
2 45603  97.5065 171.9013 0009080 282.6135  77.4080 15.11530203334487
HAIYANG-1D              
1 45721U 20036A   26165.81033554  .00000080  00000+0  44030-4 0  9991
2 45721  98.4554 107.5415 0003300 133.7605 226.3853 14.34172592314634
M2 PATHFINDER           
1 45727U 20037E   26165.78582456  .00001971  00000+0  14450-3 0  9996
2 45727  97.8150 356.9908 0012336 153.3678 206.8184 15.04668685325137
GAOFEN DUOMO (GFDM)     
1 45856U 20042A   26165.83612728  .00000373  00000+0  59950-4 0  9997
2 45856  97.7753 225.8076 0012473  81.1925 279.0697 14.76876375320662
ZIYUAN 3-03 (ZY 3-03)   
1 45939U 20051A   26165.88219157  .00003174  00000+0  14399-3 0  9992
2 45939  97.2840 233.6826 0003477 332.5744  27.5308 15.21513828326991
NEMO-HD                 
1 46277U 20061F   26165.86227641  .00009837  00000+0  21366-3 0  9998
2 46277  97.1925 227.8384 0002415  84.0336 276.1188 15.44552446321628
NAPA-1                  
1 46320U 20061BA  26165.86502362  .00066862  00000+0  60912-3 0  9994
2 46320  97.2471 239.9680 0001315 170.4647 189.6640 15.67711732321373
JILIN-1 GAOFEN 3E       
1 46457U 20065D   26165.85392657  .00059472  00000+0  64157-3 0  9996
2 46457  97.2247 218.4089 0012766 164.2941 195.8716 15.63381429319394
JILIN-1 GAOFEN 3F       
1 46458U 20065E   26165.87485256  .00050083  00000+0  59957-3 0  9998
2 46458  97.2205 215.7769 0014351 153.6684 206.5306 15.60696605319344
JILIN-1 GAOFEN 3G       
1 46459U 20065F   26165.85480102  .00087328  00000+0  69629-3 0  9991
2 46459  97.2273 222.5215 0008733  72.7520 287.4698 15.70846137319574
JILIN-1 GAOFEN 3H       
1 46460U 20065G   26165.82133250  .00071268  00000+0  65481-3 0  9997
2 46460  97.2219 218.8292 0003803   4.0035 356.1256 15.67477968319517
HAIYANG-2C              
1 46469U 20066A   26165.85235370 -.00000020  00000+0  55189-4 0  9990
2 46469  65.9970 221.0972 0009011 238.1013 121.9179 13.83375201289179
HJ-2A                   
1 46478U 20067A   26165.86108063  .00001040  00000+0  15639-3 0  9997
2 46478  97.8833 244.2883 0002372 280.7357  79.3586 14.76515176307917
HJ-2B                   
1 46479U 20067B   26165.83026684  .00000300  00000+0  50124-4 0  9990
2 46479  97.8897 245.2778 0001203  95.1595 264.9753 14.76554337307916
GONETS-M 17             
1 46486U 20068A   26165.87498686  .00000116  00000+0  76789-3 0  9997
2 46486  82.4985 348.9417 0023174  42.3176 317.9686 12.42873511258876
GONETS-M 18             
1 46487U 20068B   26165.83864391  .00000064  00000+0  38924-3 0  9995
2 46487  82.4939 348.0830 0020427  39.1018 321.1533 12.42873514258852
GONETS-M 19             
1 46488U 20068C   26165.89459088  .00000072  00000+0  44479-3 0  9996
2 46488  82.4964 348.4983 0014331  54.2851 305.9560 12.42892359258964
DEKART                  
1 46493U 20068H   26165.86357067  .00011019  00000+0  30363-3 0  9993
2 46493  97.8734 174.9670 0007058 296.9238  63.1284 15.37304686315410
NORBI                   
1 46494U 20068J   26165.83056622  .00021580  00000+0  40890-3 0  9994
2 46494  97.8617 181.5879 0004629 256.3426 103.7308 15.48368216315842
SALSAT                  
1 46495U 20068K   26165.52910375  .00006973  00000+0  24454-3 0  9992
2 46495  97.8843 168.4319 0008235 319.4661  40.5964 15.29765944314951
