OBJECT_NAME,OBJECT_ID,EPOCH,MEAN_MOTION,ECCENTRICITY,INCLINATION,RA_OF_ASC_NODE,ARG_OF_PERICENTER,MEAN_ANOMALY,EPHEMERIS_TYPE,CLASSIFICATION_TYPE,NORAD_CAT_ID,ELEMENT_SET_NO,REV_AT_EPOCH,BSTAR,MEAN_MOTION_DOT,MEAN_MOTION_DDOT
ELEKTRO-L 3,2019-095A,2026-06-14T20:18:39.621024,1.00271493,.0000964,0.2500,81.5549,352.7818,209.4234,0,U,44903,999,2368,0,-.91E-6,0
GONETS-M 14,2019-096A,2026-06-14T20:59:37.084992,12.42869373,.0013401,82.5238,86.0741,152.8625,207.3158,0,U,44905,999,29339,-.51868E-3,-.62E-6,0
GONETS-M 15,2019-096B,2026-06-14T19:46:02.376768,12.42871241,.0014785,82.5257,86.5669,176.6094,183.5088,0,U,44906,999,29335,-.16698E-3,-.13E-6,0
GONETS-M 16,2019-096C,2026-06-14T20:23:50.855424,12.42891285,.0009749,82.5204,85.5041,220.2539,139.7820,0,U,44907,999,29334,-.4577E-3,-.54E-6,0
RS-44 & BREEZE-KM R/B,2019-096E,2026-06-14T17:42:37.247904,12.79748816,.0218072,82.5218,341.3328,149.8762,211.5093,0,U,44909,999,30203,.11257E-4,.15E-6,0
JILIN-1 KUANFU 01,2020-003A,2026-06-14T20:02:08.979360,15.10712008,.0008501,97.5032,239.8358,317.0954,42.9612,0,U,45016,999,35497,.17312E-3,.2806E-4,0
XINGYUN-2 01,2020-028A,2026-06-14T21:23:56.279040,15.11799021,.0008145,97.4861,158.3372,200.4645,159.6261,0,U,45602,999,33449,.98894E-4,.1625E-4,0
XINGYUN-2 02,2020-028B,2026-06-14T20:52:33.703392,15.11530203,.000908,97.5065,171.9013,282.6135,77.4080,0,U,45603,999,33448,.87251E-4,.1415E-4,0
HAIYANG-1D,2020-036A,2026-06-14T19:26:52.990656,14.34172592,.00033,98.4554,107.5415,133.7605,226.3853,0,U,45721,999,31463,.4403E-4,.8E-6,0
M2 PATHFINDER,2020-037E,2026-06-14T18:51:35.241984,15.04668685,.0012336,97.8150,356.9908,153.3678,206.8184,0,U,45727,999,32513,.1445E-3,.1971E-4,0
GAOFEN DUOMO (GFDM),2020-042A,2026-06-14T20:04:01.396992,14.76876375,.0012473,97.7753,225.8076,81.1925,279.0697,0,U,45856,999,32066,.5995E-4,.373E-5,0
ZIYUAN 3-03 (ZY 3-03),2020-051A,2026-06-14T21:10:21.351648,15.21513828,.0003477,97.2840,233.6826,332.5744,27.5308,0,U,45939,999,32699,.14399E-3,.3174E-4,0
NEMO-HD,2020-061F,2026-06-14T20:41:40.681824,15.44552446,.0002415,97.1925,227.8384,84.0336,276.1188,0,U,46277,999,32162,.21366E-3,.9837E-4,0
NAPA-1,2020-061BA,2026-06-14T20:45:38.040768,15.67711732,.0001315,97.2471,239.9680,170.4647,189.6640,0,U,46320,999,32137,.60912E-3,.66862E-3,0
JILIN-1 GAOFEN 3E,2020-065D,2026-06-14T20:29:39.255648,15.63381429,.0012766,97.2247,218.4089,164.2941,195.8716,0,U,46457,999,31939,.64157E-3,.59472E-3,0
JILIN-1 GAOFEN 3F,2020-065E,2026-06-14T20:59:47.261184,15.60696605,.0014351,97.2205,215.7769,153.6684,206.5306,0,U,46458,999,31934,.59957E-3,.50083E-3,0
JILIN-1 GAOFEN 3G,2020-065F,2026-06-14T20:30:54.808128,15.70846137,.0008733,97.2273,222.5215,72.7520,287.4698,0,U,46459,999,31957,.69629E-3,.87328E-3,0
JILIN-1 GAOFEN 3H,2020-065G,2026-06-14T19:42:43.128000,15.67477968,.0003803,97.2219,218.8292,4.0035,356.1256,0,U,46460,999,31951,.65481E-3,.71268E-3,0
HAIYANG-2C,2020-066A,2026-06-14T20:27:23.359680,13.83375201,.0009011,65.9970,221.0972,238.1013,121.9179,0,U,46469,999,28917,.55189E-4,-.2E-6,0
HJ-2A,2020-067A,2026-06-14T20:39:57.366432,14.76515176,.0002372,97.8833,244.2883,280.7357,79.3586,0,U,46478,999,30791,.15639E-3,.104E-4,0
HJ-2B,2020-067B,2026-06-14T19:55:35.054976,14.76554337,.0001203,97.8897,245.2778,95.1595,264.9753,0,U,46479,999,30791,.50124E-4,.3E-5,0
GONETS-M 17,2020-068A,2026-06-14T20:59:58.864704,12.42873511,.0023174,82.4985,348.9417,42.3176,317.9686,0,U,46486,999,25887,.76789E-3,.116E-5,0
GONETS-M 18,2020-068B,2026-06-14T20:07:38.833824,12.42873514,.0020427,82.4939,348.0830,39.1018,321.1533,0,U,46487,999,25885,.38924E-3,.64E-6,0
GONETS-M 19,2020-068C,2026-06-14T21:28:12.652032,12.42892359,.0014331,82.4964,348.4983,54.2851,305.9560,0,U,46488,999,25896,.44479E-3,.72E-6,0
DEKART,2020-068H,2026-06-14T20:43:32.505888,15.37304686,.0007058,97.8734,174.9670,296.9238,63.1284,0,U,46493,999,31541,.30363E-3,.11019E-3,0
NORBI,2020-068J,2026-06-14T19:56:00.921408,15.48368216,.0004629,97.8617,181.5879,256.3426,103.7308,0,U,46494,999,31584,.4089E-3,.2158E-3,0
SALSAT,2020-068K,2026-06-14T12:41:54.564000,15.29765944,.0008235,97.8843,168.4319,319.4661,40.5964,0,U,46495,999,31495,.24454E-3,.6973E-4,0
